start=new Date('2023-02-18T00:00:00.000Z').valueOf();
sats=[{"MEAN_MOTION":"15.06381385","FILE":"3804075","TIME_SYSTEM":"UTC","CENTER_NAME":"EARTH","COUNTRY_CODE":"US","RCS_SIZE":"LARGE","TLE_LINE2":"2 46034  53.0550  95.8132 0000832  99.6195 260.4888 15.06381385140682","MEAN_MOTION_DDOT":"0.0000000000000","ECCENTRICITY":"0.00008320","GP_ID":"225834020","DECAY_DATE":null,"INCLINATION":"53.0550","OBJECT_ID":"2020-055H","MEAN_MOTION_DOT":"0.00005028","CLASSIFICATION_TYPE":"U","ARG_OF_PERICENTER":"99.6195","MEAN_ELEMENT_THEORY":"SGP4","SEMIMAJOR_AXIS":"6925.406","OBJECT_NAME":"STARLINK-1557","EPHEMERIS_TYPE":"0","NORAD_CAT_ID":"46034","BSTAR":"0.00035639000000","RA_OF_ASC_NODE":"95.8132","APOAPSIS":"547.847","PERIAPSIS":"546.694","REV_AT_EPOCH":"14068","REF_FRAME":"TEME","SITE":"AFETR","TLE_LINE1":"1 46034U 20055H   23048.85134496  .00005028  00000-0  35639-3 0  9990","MEAN_ANOMALY":"260.4888","PERIOD":"95.593","LAUNCH_DATE":"2020-08-07","EPOCH":"2023-02-17T20:25:56.204544","OBJECT_TYPE":"PAYLOAD","ELEMENT_SET_NO":"999"},{"MEAN_MOTION":"15.06382032","FILE":"3804075","TIME_SYSTEM":"UTC","CENTER_NAME":"EARTH","COUNTRY_CODE":"US","RCS_SIZE":"LARGE","TLE_LINE2":"2 46035  53.0538  95.7757 0001341  86.8572 273.2571 15.06382032140719","ECCENTRICITY":"0.00013410","MEAN_MOTION_DDOT":"0.0000000000000","GP_ID":"225833773","DECAY_DATE":null,"OBJECT_ID":"2020-055J","INCLINATION":"53.0538","MEAN_MOTION_DOT":"-0.00000594","CLASSIFICATION_TYPE":"U","ARG_OF_PERICENTER":"86.8572","SEMIMAJOR_AXIS":"6925.404","MEAN_ELEMENT_THEORY":"SGP4","OBJECT_NAME":"STARLINK-1558","EPHEMERIS_TYPE":"0","NORAD_CAT_ID":"46035","BSTAR":"-0.00002100200000","RA_OF_ASC_NODE":"95.7757","APOAPSIS":"548.197","PERIAPSIS":"546.340","REV_AT_EPOCH":"14071","REF_FRAME":"TEME","SITE":"AFETR","TLE_LINE1":"1 46035U 20055J   23048.85871955 -.00000594  00000-0 -21002-4 0  9994","MEAN_ANOMALY":"273.2571","PERIOD":"95.593","LAUNCH_DATE":"2020-08-07","EPOCH":"2023-02-17T20:36:33.369120","OBJECT_TYPE":"PAYLOAD","ELEMENT_SET_NO":"999"},{"TIME_SYSTEM":"UTC","CENTER_NAME":"EARTH","FILE":"3804075","MEAN_MOTION":"15.06385939","GP_ID":"225832521","DECAY_DATE":null,"TLE_LINE2":"2 46036  53.0515  95.8443 0001167  86.5079 273.6043 15.06385939140710","MEAN_MOTION_DDOT":"0.0000000000000","ECCENTRICITY":"0.00011670","RCS_SIZE":"LARGE","COUNTRY_CODE":"US","MEAN_MOTION_DOT":"-0.00001596","INCLINATION":"53.0515","OBJECT_ID":"2020-055K","MEAN_ELEMENT_THEORY":"SGP4","SEMIMAJOR_AXIS":"6925.392","ARG_OF_PERICENTER":"86.5079","CLASSIFICATION_TYPE":"U","RA_OF_ASC_NODE":"95.8443","BSTAR":"-0.00008833500000","NORAD_CAT_ID":"46036","OBJECT_NAME":"STARLINK-1560","EPHEMERIS_TYPE":"0","APOAPSIS":"548.065","PERIAPSIS":"546.448","MEAN_ANOMALY":"273.6043","SITE":"AFETR","TLE_LINE1":"1 46036U 20055K   23048.84397149 -.00001596  00000-0 -88335-4 0  9997","REF_FRAME":"TEME","REV_AT_EPOCH":"14071","EPOCH":"2023-02-17T20:15:19.136736","OBJECT_TYPE":"PAYLOAD","ELEMENT_SET_NO":"999","LAUNCH_DATE":"2020-08-07","PERIOD":"95.593"},{"MEAN_MOTION_DOT":"-0.00056039","INCLINATION":"53.0546","OBJECT_ID":"2020-055L","MEAN_ELEMENT_THEORY":"SGP4","SEMIMAJOR_AXIS":"6925.317","ARG_OF_PERICENTER":"96.7416","CLASSIFICATION_TYPE":"U","CENTER_NAME":"EARTH","TIME_SYSTEM":"UTC","FILE":"3804075","MEAN_MOTION":"15.06410234","DECAY_DATE":null,"GP_ID":"225833271","MEAN_MOTION_DDOT":"0.0000000000000","ECCENTRICITY":"0.00022380","TLE_LINE2":"2 46037  53.0546  95.8651 0002238  96.7416 263.3828 15.06410234140707","COUNTRY_CODE":"US","RCS_SIZE":"LARGE","MEAN_ANOMALY":"263.3828","TLE_LINE1":"1 46037U 20055L   23048.84020815 -.00056039  00000-0 -37717-2 0  9999","SITE":"AFETR","REF_FRAME":"TEME","REV_AT_EPOCH":"14070","ELEMENT_SET_NO":"999","OBJECT_TYPE":"PAYLOAD","EPOCH":"2023-02-17T20:09:53.984160","LAUNCH_DATE":"2020-08-07","PERIOD":"95.591","RA_OF_ASC_NODE":"95.8651","BSTAR":"-0.00377170000000","NORAD_CAT_ID":"46037","EPHEMERIS_TYPE":"0","OBJECT_NAME":"STARLINK-1565","PERIAPSIS":"545.632","APOAPSIS":"548.732"},{"MEAN_MOTION":"15.06379876","FILE":"3804075","CENTER_NAME":"EARTH","TIME_SYSTEM":"UTC","RCS_SIZE":"LARGE","COUNTRY_CODE":"US","MEAN_MOTION_DDOT":"0.0000000000000","ECCENTRICITY":"0.00011110","TLE_LINE2":"2 46038  53.0542  95.7913 0001111 103.7368 256.3745 15.06379876140704","DECAY_DATE":null,"GP_ID":"225833523","OBJECT_ID":"2020-055M","INCLINATION":"53.0542","MEAN_MOTION_DOT":"0.00015979","CLASSIFICATION_TYPE":"U","ARG_OF_PERICENTER":"103.7368","SEMIMAJOR_AXIS":"6925.410","MEAN_ELEMENT_THEORY":"SGP4","EPHEMERIS_TYPE":"0","OBJECT_NAME":"STARLINK-1567","NORAD_CAT_ID":"46038","BSTAR":"0.00108980000000","RA_OF_ASC_NODE":"95.7913","PERIAPSIS":"546.506","APOAPSIS":"548.045","REF_FRAME":"TEME","REV_AT_EPOCH":"14070","TLE_LINE1":"1 46038U 20055M   23048.85503338  .00015979  00000-0  10898-2 0  9994","SITE":"AFETR","MEAN_ANOMALY":"256.3745","PERIOD":"95.593","LAUNCH_DATE":"2020-08-07","ELEMENT_SET_NO":"999","EPOCH":"2023-02-17T20:31:14.884032","OBJECT_TYPE":"PAYLOAD"},{"MEAN_MOTION_DOT":"-0.00002237","OBJECT_ID":"2020-055N","INCLINATION":"53.0578","MEAN_ELEMENT_THEORY":"SGP4","SEMIMAJOR_AXIS":"6925.370","CLASSIFICATION_TYPE":"U","ARG_OF_PERICENTER":"81.3977","TIME_SYSTEM":"UTC","CENTER_NAME":"EARTH","MEAN_MOTION":"15.06393025","FILE":"3804075","DECAY_DATE":null,"GP_ID":"225834271","COUNTRY_CODE":"US","RCS_SIZE":"LARGE","TLE_LINE2":"2 46039  53.0578  95.7576 0001462  81.3977 278.7178 15.06393025140705","ECCENTRICITY":"0.00014620","MEAN_MOTION_DDOT":"0.0000000000000","MEAN_ANOMALY":"278.7178","REV_AT_EPOCH":"14070","REF_FRAME":"TEME","SITE":"AFETR","TLE_LINE1":"1 46039U 20055N   23048.86240383 -.00002237  00000-0 -13134-3 0  9996","OBJECT_TYPE":"PAYLOAD","EPOCH":"2023-02-17T20:41:51.690912","ELEMENT_SET_NO":"999","PERIOD":"95.593","LAUNCH_DATE":"2020-08-07","BSTAR":"-0.00013134000000","RA_OF_ASC_NODE":"95.7576","OBJECT_NAME":"STARLINK-1569","EPHEMERIS_TYPE":"0","NORAD_CAT_ID":"46039","APOAPSIS":"548.247","PERIAPSIS":"546.222"},{"EPHEMERIS_TYPE":"0","OBJECT_NAME":"STARLINK-1576","NORAD_CAT_ID":"46040","BSTAR":"-0.00021982000000","RA_OF_ASC_NODE":"95.9302","PERIAPSIS":"546.417","APOAPSIS":"548.098","REF_FRAME":"TEME","REV_AT_EPOCH":"14066","TLE_LINE1":"1 46040U 20055P   23048.82554298 -.00003553  00000-0 -21982-3 0  9999","SITE":"AFETR","MEAN_ANOMALY":"274.7983","PERIOD":"95.593","LAUNCH_DATE":"2020-08-07","ELEMENT_SET_NO":"999","EPOCH":"2023-02-17T19:48:46.913472","OBJECT_TYPE":"PAYLOAD","MEAN_MOTION":"15.06385686","FILE":"3804075","CENTER_NAME":"EARTH","TIME_SYSTEM":"UTC","RCS_SIZE":"LARGE","COUNTRY_CODE":"US","ECCENTRICITY":"0.00012140","MEAN_MOTION_DDOT":"0.0000000000000","TLE_LINE2":"2 46040  53.0555  95.9302 0001214  85.3145 274.7983 15.06385686140666","GP_ID":"225833021","DECAY_DATE":null,"INCLINATION":"53.0555","OBJECT_ID":"2020-055P","MEAN_MOTION_DOT":"-0.00003553","CLASSIFICATION_TYPE":"U","ARG_OF_PERICENTER":"85.3145","MEAN_ELEMENT_THEORY":"SGP4","SEMIMAJOR_AXIS":"6925.392"},{"TIME_SYSTEM":"UTC","CENTER_NAME":"EARTH","MEAN_MOTION":"15.06374023","FILE":"3804075","DECAY_DATE":null,"GP_ID":"225832772","COUNTRY_CODE":"US","RCS_SIZE":"LARGE","TLE_LINE2":"2 46041  53.0556  95.9598 0001170  70.5757 289.5358 15.06374023140675","ECCENTRICITY":"0.00011700","MEAN_MOTION_DDOT":"0.0000000000000","MEAN_MOTION_DOT":"0.00010785","OBJECT_ID":"2020-055Q","INCLINATION":"53.0556","SEMIMAJOR_AXIS":"6925.428","MEAN_ELEMENT_THEORY":"SGP4","CLASSIFICATION_TYPE":"U","ARG_OF_PERICENTER":"70.5757","BSTAR":"0.00074232000000","RA_OF_ASC_NODE":"95.9598","OBJECT_NAME":"STARLINK-1580","EPHEMERIS_TYPE":"0","NORAD_CAT_ID":"46041","APOAPSIS":"548.103","PERIAPSIS":"546.483","MEAN_ANOMALY":"289.5358","REV_AT_EPOCH":"14067","REF_FRAME":"TEME","SITE":"AFETR","TLE_LINE1":"1 46041U 20055Q   23048.83661374  .00010785  00000-0  74232-3 0  9994","EPOCH":"2023-02-17T20:04:43.427136","OBJECT_TYPE":"PAYLOAD","ELEMENT_SET_NO":"999","PERIOD":"95.594","LAUNCH_DATE":"2020-08-07"},{"MEAN_MOTION_DOT":"-0.00004855","INCLINATION":"53.0514","OBJECT_ID":"2020-055R","MEAN_ELEMENT_THEORY":"SGP4","SEMIMAJOR_AXIS":"6925.394","CLASSIFICATION_TYPE":"U","ARG_OF_PERICENTER":"85.7673","TIME_SYSTEM":"UTC","CENTER_NAME":"EARTH","MEAN_MOTION":"15.06385253","FILE":"3802730","DECAY_DATE":null,"GP_ID":"225778010","RCS_SIZE":"LARGE","COUNTRY_CODE":"US","TLE_LINE2":"2 46042  53.0514  97.1886 0001420  85.7673 274.3478 15.06385253140624","MEAN_MOTION_DDOT":"0.0000000000000","ECCENTRICITY":"0.00014200","MEAN_ANOMALY":"274.3478","REV_AT_EPOCH":"14062","REF_FRAME":"TEME","SITE":"AFETR","TLE_LINE1":"1 46042U 20055R   23048.54540361 -.00004855  00000-0 -30741-3 0  9995","OBJECT_TYPE":"PAYLOAD","EPOCH":"2023-02-17T13:05:22.871904","ELEMENT_SET_NO":"999","PERIOD":"95.593","LAUNCH_DATE":"2020-08-07","BSTAR":"-0.00030741000000","RA_OF_ASC_NODE":"97.1886","OBJECT_NAME":"STARLINK-1581","EPHEMERIS_TYPE":"0","NORAD_CAT_ID":"46042","APOAPSIS":"548.242","PERIAPSIS":"546.275"},{"SEMIMAJOR_AXIS":"6925.414","MEAN_ELEMENT_THEORY":"SGP4","CLASSIFICATION_TYPE":"U","ARG_OF_PERICENTER":"89.2901","MEAN_MOTION_DOT":"0.00025341","INCLINATION":"53.0541","OBJECT_ID":"2020-055S","DECAY_DATE":null,"GP_ID":"225833774","RCS_SIZE":"LARGE","COUNTRY_CODE":"US","TLE_LINE2":"2 46043  53.0541  96.9180 0001310  89.2901 270.8238 15.06378706140664","MEAN_MOTION_DDOT":"0.0000000000000","ECCENTRICITY":"0.00013100","TIME_SYSTEM":"UTC","CENTER_NAME":"EARTH","MEAN_MOTION":"15.06378706","FILE":"3804075","EPOCH":"2023-02-17T14:30:19.459296","OBJECT_TYPE":"PAYLOAD","ELEMENT_SET_NO":"999","PERIOD":"95.593","LAUNCH_DATE":"2020-08-07","MEAN_ANOMALY":"270.8238","REV_AT_EPOCH":"14066","REF_FRAME":"TEME","SITE":"AFETR","TLE_LINE1":"1 46043U 20055S   23048.60439189  .00025341  00000-0  17150-2 0  9997","APOAPSIS":"548.186","PERIAPSIS":"546.372","BSTAR":"0.00171500000000","RA_OF_ASC_NODE":"96.9180","OBJECT_NAME":"STARLINK-1582","EPHEMERIS_TYPE":"0","NORAD_CAT_ID":"46043"}];
